{"type": "FeatureCollection", "features": [ {"type": "Feature", "properties": {"norad_id": 35835, "name": "COSMOS 2251 DEB", "group": "cosmos-2251-debris", "lat": 28.287053716260846, "lon": 59.97772641948734, "alt_km": 1062.4699819947882, "timestamp": "2025-12-24T09:46:31.401784+00:00", "meta": {"OBJECT_NAME": "COSMOS 2251 DEB", "OBJECT_ID": "1993-036ATH", "EPOCH": "2025-12-21T23:46:51.040128", "MEAN_MOTION": 13.82917227, "ECCENTRICITY": 0.02911556, "INCLINATION": 74.0637, "RA_OF_ASC_NODE": 252.8841, "ARG_OF_PERICENTER": 32.3711, "MEAN_ANOMALY": 329.4908, "EPHEMERIS_TYPE": 0, "CLASSIFICATION_TYPE": "U", "NORAD_CAT_ID": 35835, "ELEMENT_SET_NO": 999, "REV_AT_EPOCH": 61827, "BSTAR": 0.0013811701, "MEAN_MOTION_DOT": 2.065e-05, "MEAN_MOTION_DDOT": 0}, "tle": {"line1": "1 35835U 93036ATH 25355.99086852  .00002065  00000+0  13812-2 0  9991", "line2": "2 35835  74.0637 252.8841 0291155  32.3711 329.4908 13.82917227618274"}}, "geometry": {"type": "Point", "coordinates": [59.97772641948734, 28.287053716260846]}}, {"type": "Feature", "properties": {"norad_id": 35836, "name": "COSMOS 2251 DEB", "group": "cosmos-2251-debris", "lat": 67.28773776414559, "lon": -72.89251338936015, "alt_km": 653.4634312030412, "timestamp": "2025-12-24T09:46:31.401794+00:00", "meta": {"OBJECT_NAME": "COSMOS 2251 DEB", "OBJECT_ID": "1993-036ATJ", "EPOCH": "2025-12-23T20:14:10.891104", "MEAN_MOTION": 14.71217504, "ECCENTRICITY": 0.0023444, "INCLINATION": 74.0324, "RA_OF_ASC_NODE": 151.3656, "ARG_OF_PERICENTER": 209.0088, "MEAN_ANOMALY": 150.9782, "EPHEMERIS_TYPE": 0, "CLASSIFICATION_TYPE": "U", "NORAD_CAT_ID": 35836, "ELEMENT_SET_NO": 999, "REV_AT_EPOCH": 63683, "BSTAR": 0.0022605, "MEAN_MOTION_DOT": 0.00013996, "MEAN_MOTION_DDOT": 0}, "tle": {"line1": "1 35836U 93036ATJ 25357.84318161  .00013996  00000+0  22605-2 0  9994", "line2": "2 35836  74.0324 151.3656 0023444 209.0088 150.9782 14.71217504636838"}}, "geometry": {"type": "Point", "coordinates": [-72.89251338936015, 67.28773776414559]}}, {"type": "Feature", "properties": {"norad_id": 35837, "name": "COSMOS 2251 DEB", "group": "cosmos-2251-debris", "lat": -21.1075429165403, "lon": 14.692293884306268, "alt_km": 1040.2476164975342, "timestamp": "2025-12-24T09:46:31.401805+00:00", "meta": {"OBJECT_NAME": "COSMOS 2251 DEB", "OBJECT_ID": "1993-036ATK", "EPOCH": "2025-12-23T20:48:22.053024", "MEAN_MOTION": 13.63560689, "ECCENTRICITY": 0.0421934, "INCLINATION": 73.722, "RA_OF_ASC_NODE": 189.1152, "ARG_OF_PERICENTER": 108.1648, "MEAN_ANOMALY": 317.2477, "EPHEMERIS_TYPE": 0, "CLASSIFICATION_TYPE": "U", "NORAD_CAT_ID": 35837, "ELEMENT_SET_NO": 999, "REV_AT_EPOCH": 58128, "BSTAR": 0.0035572, "MEAN_MOTION_DOT": 5.124e-05, "MEAN_MOTION_DDOT": 0}, "tle": {"line1": "1 35837U 93036ATK 25357.86692191  .00005124  00000+0  35572-2 0  9996", "line2": "2 35837  73.7220 189.1152 0421934 108.1648 317.2477 13.63560689581289"}}, "geometry": {"type": "Point", "coordinates": [14.692293884306268, -21.1075429165403]}}, {"type": "Feature", "properties": {"norad_id": 35839, "name": "COSMOS 2251 DEB", "group": "cosmos-2251-debris", "lat": 33.945804589422686, "lon": -51.0838171705237, "alt_km": 381.79118497410946, "timestamp": "2025-12-24T09:46:31.401815+00:00", "meta": {"OBJECT_NAME": "COSMOS 2251 DEB", "OBJECT_ID": "1993-036ATM", "EPOCH": "2025-12-22T13:00:04.597632", "MEAN_MOTION": 15.59480867, "ECCENTRICITY": 0.0007508, "INCLINATION": 74.2046, "RA_OF_ASC_NODE": 302.0435, "ARG_OF_PERICENTER": 136.7735, "MEAN_ANOMALY": 223.4075, "EPHEMERIS_TYPE": 0, "CLASSIFICATION_TYPE": "U", "NORAD_CAT_ID": 35839, "ELEMENT_SET_NO": 999, "REV_AT_EPOCH": 88720, "BSTAR": 0.0064439432, "MEAN_MOTION_DOT": 0.0054719, "MEAN_MOTION_DDOT": 0}, "tle": {"line1": "1 35839U 93036ATM 25356.54171988  .00547190  00000+0  64439-2 0  9996", "line2": "2 35839  74.2046 302.0435 0007508 136.7735 223.4075 15.59480867887203"}}, "geometry": {"type": "Point", "coordinates": [-51.0838171705237, 33.945804589422686]}}, {"type": "Feature", "properties": {"norad_id": 35840, "name": "COSMOS 2251 DEB", "group": "cosmos-2251-debris", "lat": -58.715646861352575, "lon": -15.124486901516418, "alt_km": 845.9305963791239, "timestamp": "2025-12-24T09:46:31.401825+00:00", "meta": {"OBJECT_NAME": "COSMOS 2251 DEB", "OBJECT_ID": "1993-036ATN", "EPOCH": "2025-12-12T04:26:56.474304", "MEAN_MOTION": 14.37821687, "ECCENTRICITY": 0.01162768, "INCLINATION": 73.9307, "RA_OF_ASC_NODE": 159.2062, "ARG_OF_PERICENTER": 61.7798, "MEAN_ANOMALY": 299.5037, "EPHEMERIS_TYPE": 0, "CLASSIFICATION_TYPE": "U", "NORAD_CAT_ID": 35840, "ELEMENT_SET_NO": 999, "REV_AT_EPOCH": 85283, "BSTAR": 0.0026691111, "MEAN_MOTION_DOT": 8.683e-05, "MEAN_MOTION_DDOT": 0}, "tle": {"line1": "1 35840U 93036ATN 25346.18537586  .00008683  00000+0  26691-2 0  9994", "line2": "2 35840  73.9307 159.2062 0116276  61.7798 299.5037 14.37821687852835"}}, "geometry": {"type": "Point", "coordinates": [-15.124486901516418, -58.715646861352575]}}, {"type": "Feature", "properties": {"norad_id": 35883, "name": "COSMOS 2251 DEB", "group": "cosmos-2251-debris", "lat": 51.59365754455622, "lon": 69.26027580043703, "alt_km": 747.5824666771496, "timestamp": "2025-12-24T09:46:31.401835+00:00", "meta": {"OBJECT_NAME": "COSMOS 2251 DEB", "OBJECT_ID": "1993-036ATW", "EPOCH": "2025-12-23T21:05:13.714080", "MEAN_MOTION": 14.50630693, "ECCENTRICITY": 0.0083107, "INCLINATION": 74.0242, "RA_OF_ASC_NODE": 49.0707, "ARG_OF_PERICENTER": 175.772, "MEAN_ANOMALY": 359.9485, "EPHEMERIS_TYPE": 0, "CLASSIFICATION_TYPE": "U", "NORAD_CAT_ID": 35883, "ELEMENT_SET_NO": 999, "REV_AT_EPOCH": 62547, "BSTAR": 0.00025575, "MEAN_MOTION_DOT": 1.02e-05, "MEAN_MOTION_DDOT": 0}, "tle": {"line1": "1 35883U 93036ATW 25357.87863095  .00001020  00000+0  25575-3 0  9995", "line2": "2 35883  74.0242  49.0707 0083107 175.7720 359.9485 14.50630693625477"}}, "geometry": {"type": "Point", "coordinates": [69.26027580043703, 51.59365754455622]}}, {"type": "Feature", "properties": {"norad_id": 35884, "name": "COSMOS 2251 DEB", "group": "cosmos-2251-debris", "lat": 8.125394103553205, "lon": 132.53309608615075, "alt_km": 783.6258171098716, "timestamp": "2025-12-24T09:46:31.401845+00:00", "meta": {"OBJECT_NAME": "COSMOS 2251 DEB", "OBJECT_ID": "1993-036ATX", "EPOCH": "2025-12-23T04:21:24.693984", "MEAN_MOTION": 14.25720371, "ECCENTRICITY": 0.01085787, "INCLINATION": 73.9917, "RA_OF_ASC_NODE": 317.1007, "ARG_OF_PERICENTER": 101.1734, "MEAN_ANOMALY": 260.1642, "EPHEMERIS_TYPE": 0, "CLASSIFICATION_TYPE": "U", "NORAD_CAT_ID": 35884, "ELEMENT_SET_NO": 999, "REV_AT_EPOCH": 22506, "BSTAR": 0.0013065465, "MEAN_MOTION_DOT": 3.275e-05, "MEAN_MOTION_DDOT": 0}, "tle": {"line1": "1 35884U 93036ATX 25357.18153581  .00003275  00000+0  13065-2 0  9996", "line2": "2 35884  73.9917 317.1007 0108578 101.1734 260.1642 14.25720371225069"}}, "geometry": {"type": "Point", "coordinates": [132.53309608615075, 8.125394103553205]}}, {"type": "Feature", "properties": {"norad_id": 35885, "name": "COSMOS 2251 DEB", "group": "cosmos-2251-debris", "lat": 72.39250586617484, "lon": 28.836421357819873, "alt_km": 764.0054913238027, "timestamp": "2025-12-24T09:46:31.401856+00:00", "meta": {"OBJECT_NAME": "COSMOS 2251 DEB", "OBJECT_ID": "1993-036ATY", "EPOCH": "2025-12-24T00:58:25.623840", "MEAN_MOTION": 14.37540566, "ECCENTRICITY": 0.0023783, "INCLINATION": 74.0286, "RA_OF_ASC_NODE": 273.9878, "ARG_OF_PERICENTER": 352.1059, "MEAN_ANOMALY": 7.9717, "EPHEMERIS_TYPE": 0, "CLASSIFICATION_TYPE": "U", "NORAD_CAT_ID": 35885, "ELEMENT_SET_NO": 999, "REV_AT_EPOCH": 65178, "BSTAR": 0.00028459, "MEAN_MOTION_DOT": 8.29e-06, "MEAN_MOTION_DDOT": 0}, "tle": {"line1": "1 35885U 93036ATY 25358.04057435  .00000829  00000+0  28459-3 0  9990", "line2": "2 35885  74.0286 273.9878 0023783 352.1059   7.9717 14.37540566651789"}}, "geometry": {"type": "Point", "coordinates": [28.836421357819873, 72.39250586617484]}}, {"type": "Feature", "properties": {"norad_id": 35888, "name": "COSMOS 2251 DEB", "group": "cosmos-2251-debris", "lat": -23.8743132500186, "lon": 161.73654617388095, "alt_km": 710.4190788722744, "timestamp": "2025-12-24T09:46:31.401866+00:00", "meta": {"OBJECT_NAME": "COSMOS 2251 DEB", "OBJECT_ID": "1993-036AUB", "EPOCH": "2025-12-23T04:51:21.809664", "MEAN_MOTION": 14.58352847, "ECCENTRICITY": 0.00479955, "INCLINATION": 74.0338, "RA_OF_ASC_NODE": 336.7494, "ARG_OF_PERICENTER": 105.6018, "MEAN_ANOMALY": 255.0451, "EPHEMERIS_TYPE": 0, "CLASSIFICATION_TYPE": "U", "NORAD_CAT_ID": 35888, "ELEMENT_SET_NO": 999, "REV_AT_EPOCH": 86426, "BSTAR": 0.00040405486, "MEAN_MOTION_DOT": 1.871e-05, "MEAN_MOTION_DDOT": 0}, "tle": {"line1": "1 35888U 93036AUB 25357.20233576  .00001871  00000+0  40405-3 0  9995", "line2": "2 35888  74.0338 336.7494 0047995 105.6018 255.0451 14.58352847864265"}}, "geometry": {"type": "Point", "coordinates": [161.73654617388095, -23.8743132500186]}}, {"type": "Feature", "properties": {"norad_id": 35890, "name": "COSMOS 2251 DEB", "group": "cosmos-2251-debris", "lat": -32.015626198084846, "lon": 50.76963547994725, "alt_km": 730.9218655913155, "timestamp": "2025-12-24T09:46:31.401876+00:00", "meta": {"OBJECT_NAME": "COSMOS 2251 DEB", "OBJECT_ID": "1993-036AUD", "EPOCH": "2025-12-21T00:05:00.914784", "MEAN_MOTION": 14.57585084, "ECCENTRICITY": 0.00541447, "INCLINATION": 73.9362, "RA_OF_ASC_NODE": 226.8978, "ARG_OF_PERICENTER": 350.2956, "MEAN_ANOMALY": 9.7156, "EPHEMERIS_TYPE": 0, "CLASSIFICATION_TYPE": "U", "NORAD_CAT_ID": 35890, "ELEMENT_SET_NO": 999, "REV_AT_EPOCH": 65271, "BSTAR": 0.0010880234, "MEAN_MOTION_DOT": 5.027e-05, "MEAN_MOTION_DDOT": 0}, "tle": {"line1": "1 35890U 93036AUD 25355.00348281  .00005027  00000+0  10880-2 0  9994", "line2": "2 35890  73.9362 226.8978 0054144 350.2956   9.7156 14.57585084652713"}}, "geometry": {"type": "Point", "coordinates": [50.76963547994725, -32.015626198084846]}}]}